[{"OBJECT_NAME":"SJ 16-02","OBJECT_ID":"2016-043A","EPOCH":"2026-03-09T22:18:39.296736","MEAN_MOTION":14.93231549,"ECCENTRICITY":0.00086699,"INCLINATION":75.0004,"RA_OF_ASC_NODE":106.8267,"ARG_OF_PERICENTER":275.0544,"MEAN_ANOMALY":84.9655,"EPHEMERIS_TYPE":0,"CLASSIFICATION_TYPE":"U","NORAD_CAT_ID":41634,"ELEMENT_SET_NO":999,"REV_AT_EPOCH":52632,"BSTAR":0.0001182302,"MEAN_MOTION_DOT":1.208e-5,"MEAN_MOTION_DDOT":0},{"OBJECT_NAME":"FENGYUN 1C DEB","OBJECT_ID":"1999-025ELG","EPOCH":"2026-02-16T12:48:31.445856","MEAN_MOTION":14.60850134,"ECCENTRICITY":0.0269289,"INCLINATION":98.3705,"RA_OF_ASC_NODE":316.8342,"ARG_OF_PERICENTER":306.6389,"MEAN_ANOMALY":51.0321,"EPHEMERIS_TYPE":0,"CLASSIFICATION_TYPE":"U","NORAD_CAT_ID":37691,"ELEMENT_SET_NO":999,"REV_AT_EPOCH":86593,"BSTAR":0.0030884,"MEAN_MOTION_DOT":0.00025342,"MEAN_MOTION_DDOT":0}]
